[{"name": "SCD 1", "line1": "1 22490U 93009B   26155.75281669  .00000439  00000+0  69390-4 0  9997", "line2": "2 22490  24.9702 284.3530 0041959   6.6560 106.6620 14.46114464759310"}, {"name": "TECHSAT 1B (GO-32)", "line1": "1 25397U 98043D   26155.98258492  .00000079  00000+0  54311-4 0  9999", "line2": "2 25397  99.0064 148.4335 0000374 204.4139 155.7022 14.24426023449592"}, {"name": "SCD 2", "line1": "1 25504U 98060A   26155.40266409  .00000421  00000+0  66638-4 0  9998", "line2": "2 25504  24.9935 151.0008 0016676 349.0284 120.2222 14.45520658458470"}, {"name": "DLR-TUBSAT", "line1": "1 25757U 99029B   26155.20427424  .00000136  00000+0  45301-4 0  9995", "line2": "2 25757  98.6692 150.2812 0014816  33.8590 326.3547 14.52423384431368"}, {"name": "TERRA", "line1": "1 25994U 99068A   26156.17606898  .00000424  00000+0  95283-4 0  9996", "line2": "2 25994  97.9461 206.1980 0000828 255.9565 196.9019 14.61093234407850"}, {"name": "MAROC-TUBSAT", "line1": "1 27004U 01056D   26156.03844816 -.00000029  00000+0  19563-4 0  9998", "line2": "2 27004  99.8078 332.6694 0019947 171.8766 304.2117 13.70261916224524"}, {"name": "AQUA", "line1": "1 27424U 02022A   26156.15291661  .00000962  00000+0  20106-3 0  9994", "line2": "2 27424  98.4271 125.1959 0001569  56.1167  36.9954 14.62139503281518"}, {"name": "SHIYAN-1 (SY-1)", "line1": "1 28220U 04012A   26155.72132218  .00015455  00000+0  48025-3 0  9997", "line2": "2 28220  97.8690 232.9831 0006560  71.9903 288.2053 15.33431428209181"}, {"name": "AURA", "line1": "1 28376U 04026A   26156.14048416  .00000948  00000+0  20176-3 0  9995", "line2": "2 28376  98.3412 112.4947 0001377  70.0228 290.1120 14.61310515164452"}, {"name": "IRS-P5 (CARTOSAT-1)", "line1": "1 28649U 05017A   26155.99863647  .00001657  00000+0  17281-3 0  9993", "line2": "2 28649  97.5312 179.6159 0002675  95.9621 264.1903 14.91017026142001"}, {"name": "SINAH 1", "line1": "1 28893U 05043D   26156.09476588  .00000409  00000+0  87186-4 0  9995", "line2": "2 28893  98.2846 290.3468 0013483 318.0447  41.9721 14.64149450 98758"}, {"name": "RESURS-DK 1", "line1": "1 29228U 06021A   26156.00435956  .00002703  00000+0  15809-3 0  9991", "line2": "2 29228  69.9334  11.0884 0006126 302.3311  57.7262 15.13160902100737"}, {"name": "ARIRANG-2 (KOMPSAT-2)", "line1": "1 29268U 06031A   26156.20309882  .00000274  00000+0  59949-4 0  9991", "line2": "2 29268  97.8303 341.2294 0015753 109.0130 324.0504 14.64651742 59720"}, {"name": "LAPAN-TUBSAT", "line1": "1 29709U 07001A   26156.20079277  .00000212  00000+0  30852-4 0  9995", "line2": "2 29709  98.1339 155.1548 0011020 220.8201 139.2188 14.85936046 49371"}, {"name": "HAIYANG-1B", "line1": "1 31113U 07010A   26154.58027472  .00000100  00000+0  54012-4 0  9996", "line2": "2 31113  98.3489 136.9535 0012340 239.3242 120.6726 14.31023350998685"}, {"name": "COSMO-SKYMED 1", "line1": "1 31598U 07023A   26156.17093887  .00002509  00000+0  22301-3 0  9997", "line2": "2 31598  97.8862 347.9268 0001463  80.9490 279.1896 14.97047768 27993"}, {"name": "TERRASAR-X", "line1": "1 31698U 07026A   26155.67675039  .00000882  00000+0  45172-4 0  9994", "line2": "2 31698  97.4453 163.5606 0001619  90.1175 270.0246 15.19148915 51324"}, {"name": "WORLDVIEW-1 (WV-1)", "line1": "1 32060U 07041A   26156.08112287  .00007482  00000+0  31054-3 0  9998", "line2": "2 32060  97.3864 276.0012 0003244  53.2986 306.8549 15.24126989 41034"}, {"name": "YAOGAN-3", "line1": "1 32289U 07055A   26156.17976184  .00003108  00000+0  32206-3 0  9991", "line2": "2 32289  97.8157 186.1770 0002047  88.7497 271.3956 14.90737092  4086"}, {"name": "COSMO-SKYMED 2", "line1": "1 32376U 07059A   26156.14415731  .00000496  00000+0  68821-4 0  9995", "line2": "2 32376  97.8885 339.9170 0001453  87.3495 272.7885 14.82161607   228"}, {"name": "RADARSAT-2", "line1": "1 32382U 07061A   26156.14276675  .00000114  00000+0  60994-4 0  9997", "line2": "2 32382  98.5776 163.2472 0001308  80.7980 279.3350 14.29982521964237"}, {"name": "CARTOSAT-2A", "line1": "1 32783U 08021A   26156.14116260  .00000511  00000+0  75486-4 0  9995", "line2": "2 32783  97.7635 205.2601 0012440 144.3607 215.8438 14.79219274977026"}, {"name": "HUANJING 1A (HJ-1A)", "line1": "1 33320U 08041A   26156.23152369  .00001155  00000+0  14468-3 0  9992", "line2": "2 33320  97.6681 142.5330 0018815 172.9285 187.2199 14.83957682956634"}, {"name": "HUANJING 1B (HJ-1B)", "line1": "1 33321U 08041B   26156.19520480  .00001195  00000+0  15078-3 0  9993", "line2": "2 33321  97.6515 145.7057 0035048 221.2207 138.6360 14.83296277956637"}, {"name": "GEOEYE 1", "line1": "1 33331U 08042A   26156.06047278  .00000587  00000+0  11908-3 0  9992", "line2": "2 33331  98.1236 230.1452 0005566  98.5027 261.6807 14.64714221948377"}, {"name": "THEOS", "line1": "1 33396U 08049A   26156.20273428  .00000371  00000+0  19387-3 0  9994", "line2": "2 33396  98.5572 213.8746 0001285  80.2759 279.8563 14.20132695916267"}, {"name": "COSMO-SKYMED 3", "line1": "1 33412U 08054A   26156.19075295  .00004155  00000+0  28226-3 0  9995", "line2": "2 33412  97.8292  14.5622 0014392 312.5153  47.4857 15.06876363955134"}, {"name": "YAOGAN-4", "line1": "1 33446U 08061A   26156.09113811  .00001215  00000+0  15524-3 0  9997", "line2": "2 33446  97.9306  89.6912 0015651 108.1302 252.1618 14.83176820943870"}, {"name": "GOSAT (IBUKI)", "line1": "1 33492U 09002A   26156.07011826  .00000298  00000+0  61073-4 0  9996", "line2": "2 33492  98.0880 267.3046 0001571  86.8864 273.2521 14.67539651929681"}, {"name": "DEIMOS-1", "line1": "1 35681U 09041A   26156.18094470  .00000371  00000+0  61921-4 0  9993", "line2": "2 35681  97.7395 313.9295 0000800 138.9939 221.1331 14.75223525905112"}]